OBJECT_NAME,OBJECT_ID,NORAD_CAT_ID,EPOCH,MEAN_MOTION,ECCENTRICITY,INCLINATION,RA_OF_ASC_NODE,ARG_OF_PERICENTER,MEAN_ANOMALY,MEAN_MOTION_DOT,MEAN_MOTION_DDOT,REV_AT_EPOCH,BSTAR,orbital_period_min,altitude_estimated,drag_index,energy_index,orbit_type,orbit_family,anomaly_score,anomaly_flag
COSMOS 2493 (SKRL-756 1),2013-078A,39490,2025-10-13 22:38:11.759424,15.00156136,0.00139668,82.4127,141.7762,2.8621,357.268,4.861e-05,0.0,64101,0.00038662562,95.99000833603897,573.5514453537025,5.399922709416e-07,0.0022217596692594593,LEO,LEO,-0.1323331148211369,1
COSMOS 2494 (SKRL-756 2),2013-078B,39491,2025-10-13 21:35:31.649568,15.02591446,0.00162736,82.4108,132.1972,326.1458,33.8727,4.618e-05,0.0,64179,0.00034414705,95.83443349377353,566.0458756565058,5.60051143288e-07,0.00221456371601864,LEO,LEO,-0.14637190980200238,1
GSAT-14,2014-001A,39498,2025-10-13 21:47:38.748768,1.00272177,0.00051964,0.0476,71.764,155.599,196.27,-9.1e-07,0.0,4290,0.0,1436.0912898101335,35793.622069718665,0.0,0.4972893018587319,GEO,GEO,-0.046478606209053086,1
THAICOM 6,2014-002A,39500,2025-10-13 22:20:55.011264,1.00270656,0.00033947,0.0763,100.1552,100.597,235.7106,-1.34e-06,0.0,4298,0.0,1436.1130737989786,35794.04846384426,0.0,0.4973043886806401,GEO,GEO,-0.03747068102213458,1
TDRS 12,2014-004A,39504,2025-10-13 18:21:18.668160,1.00268902,0.00072731,3.7586,14.4419,223.5528,19.0183,-2.81e-06,0.0,4180,0.0,1436.1381956690818,35794.54019011172,0.0,0.4973217874854471,GEO,GEO,0.005672264422393769,-1
ABS-2,2014-006A,39508,2025-10-13 21:47:38.748768,1.00271719,0.00037339,0.0622,80.2892,127.1741,217.108,-1e-06,0.0,4280,0.0,1436.0978492849015,35793.75046339669,0.0,0.49729384469538956,GEO,GEO,-0.04757846654664,1
ATHENA-FIDUS,2014-006B,39509,2025-10-13 22:09:18.623808,1.00270813,0.00016084,0.0274,111.8139,112.2329,168.815,1.41e-06,0.0,4261,0.0,1436.1108251909754,35794.00445027648,0.0,0.4973028313634994,GEO,GEO,-0.03248295079712005,1
TURKSAT 4A,2014-007A,39522,2025-10-13 22:10:33.504096,1.00270693,0.00041325,0.0508,291.287,318.8615,147.2103,1.33e-06,0.0,4249,0.0,1436.1125438716176,35794.038091209666,0.0,0.49730402166893534,GEO,GEO,-0.008708315807540057,1
NAVSTAR 69 (USA 248),2014-008A,39533,2025-10-13 09:13:26.438592,2.00570865,0.0078341,53.6213,159.3867,226.1797,133.2486,-3e-08,0.0,8473,0.0,717.9507352675574,20188.706794404956,0.0,0.12428946235320852,MEO,MEO,-0.012193763760962373,1
GPM-CORE,2014-009C,39574,2025-10-13 22:26:53.446848,15.44565848,0.00073203,64.9761,52.9973,253.2265,106.8072,0.00018027,0.0,65977,0.00038987381,93.2300815704686,439.79104066638774,2.853993251343e-07,0.0020958352887818837,LEO,LEO,-0.17612138994827942,1
EXPRESS-AT1,2014-010A,39612,2025-10-13 23:57:19.035072,1.00271284,4.61e-05,0.019,223.7115,316.9767,257.4565,6.5e-07,0.0,4234,0.0,1436.1040794092155,35793.87241026229,0.0,0.4972981594559679,GEO,GEO,-0.007760143125909558,1
EXPRESS-AT2,2014-010B,39613,2025-10-12 05:32:20.415840,1.00268655,3.128e-05,0.0174,228.3626,164.242,211.3956,-2.9e-06,0.0,4201,0.0,1436.1417334260643,35794.60943663848,0.0,0.4973242376755451,GEO,GEO,-0.019467505574018218,1
AMAZONAS 4A,2014-011A,39616,2025-10-13 21:37:29.176032,1.00272587,0.00055179,0.0575,159.2615,50.8678,62.9586,-2.66e-06,0.0,4224,0.0,1436.085417842067,35793.507132975756,0.0,0.4972852351800309,GEO,GEO,-0.016073142269203422,1
ASTRA 5B,2014-011B,39617,2025-10-13 22:05:11.518944,1.00270573,0.00039911,0.0512,1.4067,227.6557,148.4745,1.23e-06,0.0,4219,0.0,1436.1142625563734,35794.071732209944,0.0,0.49730521197864497,GEO,GEO,-0.01798607185493506,1
COSMOS 2492 [GLONASS-M],2014-012A,39620,2025-10-13 12:11:05.591040,2.13103163,0.00130065,65.4395,322.3146,306.874,53.0663,-3.7e-07,0.0,8998,0.0,675.7290599201477,19136.931621590094,0.0,0.1101007336083542,MEO,MEO,-0.008006166090111067,1
SJ-11-06,2014-014A,39624,2025-10-13 22:33:49.169952,14.61530375,0.00148483,97.9773,317.78,45.2163,315.0243,7.73e-06,0.0,61472,0.00016473949,98.52686092822395,695.3738591607053,2.446101369367e-07,0.0023407461237388077,LEO,LEO,-0.13067836444094516,1
SENTINEL-1A,2014-016A,39634,2025-10-13 23:46:17.460768,14.59201277,0.00013392,98.1823,293.104,90.1368,269.9985,2.9e-06,0.0,61411,7.1144199e-05,98.68412416418136,702.8911689307124,9.527631130079999e-09,0.0023482244314360443,LEO,LEO,-0.17383439642077975,1
IRNSS-1B,2014-017A,39635,2025-10-09 11:25:38.856288,1.00269689,0.0019143,28.9447,244.6899,191.2861,168.8446,9.8e-07,0.0,4228,0.0,1436.1269236608484,35794.31955631322,0.0,0.49731398072520544,GEO,GEO,0.0027509908632546987,-1
LUCH-5V,2014-023A,39727,2025-10-13 22:25:32.069280,1.00273199,0.00035687,4.5156,72.0542,170.603,211.2516,-2.8e-06,0.0,4189,0.0,1436.076652944921,35793.33557031912,0.0,0.49727916501096814,GEO,GEO,-0.027402780094246904,1
KAZSAT-3,2014-023B,39728,2025-10-13 22:15:10.561248,1.00271349,1.102e-05,0.0314,1.6117,319.9076,93.5149,4.7e-07,0.0,3998,0.0,1436.1031484676644,35793.85418826082,0.0,0.49729751471806005,GEO,GEO,-0.006355372440189133,1
KAZEOSAT 1,2014-024A,39731,2025-10-13 21:49:40.749024,14.42062903,0.00011541,98.3493,0.142,101.2324,258.8995,3.23e-06,0.0,60306,0.00011136085,99.85694777975992,758.8277549795139,1.2852155698499999e-08,0.0024043716290243294,LEO,LEO,-0.16491390657563598,1
NAVSTAR 70 (USA 251),2014-026A,39741,2025-10-13 03:57:57.034080,2.00565519,0.00369827,56.6053,341.1338,316.8223,42.9453,-8.9e-07,0.0,8358,0.0,717.9698719798391,20189.17875177318,0.0,0.12429608822114839,MEO,MEO,0.010354538518524081,-1
COSMOS 2496,2014-028A,39761,2025-10-13 22:34:39.371808,12.42895592,0.00184475,82.4413,262.9386,256.9082,102.9938,4.9e-07,0.0,51692,0.0002829376,115.85848475677915,1501.489247626605,5.219491376e-07,0.003236687039481295,LEO,LEO,-0.09270420937488177,1
COSMOS 2497,2014-028B,39762,2025-10-13 22:00:44.800416,12.42867719,0.00189559,82.446,264.5481,251.2026,108.6998,4.3e-07,0.0,51692,0.00024067711,115.86108304097003,1501.6069480433016,4.562251229449e-07,0.0032368322153324054,LEO,LEO,-0.09170799801593821,1
