COSMOS 2493 (SKRL-756 1)
1 39490U 13078A   25286.94319166  .00004861  00000+0  38663-3 0  9993
2 39490  82.4127 141.7762 0013966   2.8621 357.2680 15.00156136641014
COSMOS 2494 (SKRL-756 2)
1 39491U 13078B   25286.89967187  .00004618  00000+0  34415-3 0  9991
2 39491  82.4108 132.1972 0016273 326.1458  33.8727 15.02591446641798
GSAT-14                 
1 39498U 14001A   25286.90808737 -.00000091  00000+0  00000+0 0  9993
2 39498   0.0476  71.7640 0005196 155.5990 196.2700  1.00272177 42909
THAICOM 6               
1 39500U 14002A   25286.93119226 -.00000134  00000+0  00000+0 0  9997
2 39500   0.0763 100.1552 0003394 100.5970 235.7106  1.00270656 42984
TDRS 12                 
1 39504U 14004A   25286.76479940 -.00000281  00000+0  00000+0 0  9999
2 39504   3.7586  14.4419 0007273 223.5528  19.0183  1.00268902 41804
ABS-2                   
1 39508U 14006A   25286.90808737 -.00000100  00000+0  00000+0 0  9991
2 39508   0.0622  80.2892 0003733 127.1741 217.1080  1.00271719 42806
ATHENA-FIDUS            
1 39509U 14006B   25286.92313222  .00000141  00000+0  00000+0 0  9998
2 39509   0.0274 111.8139 0001608 112.2329 168.8150  1.00270813 42614
TURKSAT 4A              
1 39522U 14007A   25286.92399889  .00000133  00000+0  00000+0 0  9998
2 39522   0.0508 291.2870 0004132 318.8615 147.2103  1.00270693 42492
NAVSTAR 69 (USA 248)    
1 39533U 14008A   25286.38433378 -.00000003  00000+0  00000+0 0  9990
2 39533  53.6213 159.3867 0078341 226.1797 133.2486  2.00570865 84733
GPM-CORE                
1 39574U 14009C   25286.93534082  .00018027  00000+0  38987-3 0  9994
2 39574  64.9761  52.9973 0007320 253.2265 106.8072 15.44565848659773
EXPRESS-AT1             
1 39612U 14010A   25286.99813698  .00000065  00000+0  00000+0 0  9992
2 39612   0.0190 223.7115 0000461 316.9767 257.4565  1.00271284 42346
EXPRESS-AT2             
1 39613U 14010B   25285.23079185 -.00000290  00000+0  00000+0 0  9995
2 39613   0.0174 228.3626 0000312 164.2420 211.3956  1.00268655 42017
AMAZONAS 4A             
1 39616U 14011A   25286.90103213 -.00000266  00000+0  00000+0 0  9997
2 39616   0.0575 159.2615 0005517  50.8678  62.9586  1.00272587 42245
ASTRA 5B                
1 39617U 14011B   25286.92027221  .00000123  00000+0  00000+0 0  9995
2 39617   0.0512   1.4067 0003991 227.6557 148.4745  1.00270573 42194
COSMOS 2492 [GLONASS-M] 
1 39620U 14012A   25286.50770360 -.00000037  00000+0  00000+0 0  9998
2 39620  65.4395 322.3146 0013006 306.8740  53.0663  2.13103163 89980
SJ-11-06                
1 39624U 14014A   25286.94015243  .00000773  00000+0  16474-3 0  9996
2 39624  97.9773 317.7800 0014848  45.2163 315.0243 14.61530375614723
SENTINEL-1A             
1 39634U 14016A   25286.99047987  .00000290  00000+0  71144-4 0  9994
2 39634  98.1823 293.1040 0001339  90.1368 269.9985 14.59201277614119
IRNSS-1B                
1 39635U 14017A   25282.47614417  .00000098  00000+0  00000+0 0  9997
2 39635  28.9447 244.6899 0019143 191.2861 168.8446  1.00269689 42284
LUCH-5V                 
1 39727U 14023A   25286.93439895 -.00000280  00000+0  00000+0 0  9990
2 39727   4.5156  72.0542 0003568 170.6030 211.2516  1.00273199 41892
KAZSAT-3                
1 39728U 14023B   25286.92720557  .00000047  00000+0  00000+0 0  9998
2 39728   0.0314   1.6117 0000110 319.9076  93.5149  1.00271349 39989
KAZEOSAT 1              
1 39731U 14024A   25286.90949941  .00000323  00000+0  11136-3 0  9994
2 39731  98.3493   0.1420 0001154 101.2324 258.8995 14.42062903603064
NAVSTAR 70 (USA 251)    
1 39741U 14026A   25286.16524345 -.00000089  00000+0  00000+0 0  9996
2 39741  56.6053 341.1338 0036982 316.8223  42.9453  2.00565519 83581
COSMOS 2496             
1 39761U 14028A   25286.94073347  .00000049  00000+0  28294-3 0  9991
2 39761  82.4413 262.9386 0018447 256.9082 102.9938 12.42895592516924
COSMOS 2497             
1 39762U 14028B   25286.91718519  .00000043  00000+0  24068-3 0  9995
2 39762  82.4460 264.5481 0018955 251.2026 108.6998 12.42867719516920
